[Satellite]
VERSION=1.1
NAME=STARLINK-5245
NICKNAME=STARLINK-5245
TLE1=1 54168U 22141M   22321.58334491  .00054596  00000+0  39099-3 0  9992
TLE2=2 54168  53.2185  42.2627 0002939  26.4089  94.4515 15.73191074  1305
STATUS=0
